{
  "type": "FeatureCollection",
  "features": [
    {
      "type": "Feature",
      "properties": {
        "norad_id": 41948,
        "name": "CARTOSAT-2D",
        "group": "resource",
        "lat": 74.78600467003592,
        "lon": -95.72644028572303,
        "alt_km": 497.7399967276442,
        "timestamp": "2025-12-24T05:51:19.263137+00:00",
        "meta_object_name": "CARTOSAT-2D",
        "meta_object_id": "2017-008A",
        "meta_epoch": "2025-12-23T23:04:45.338304",
        "meta_mean_motion": 15.19171771,
        "meta_eccentricity": 0.00052837,
        "meta_inclination": 97.4375,
        "meta_ra_of_asc_node": 55.2874,
        "meta_arg_of_pericenter": 120.6667,
        "meta_mean_anomaly": 239.5089,
        "meta_ephemeris_type": 0,
        "meta_classification_type": "U",
        "meta_norad_cat_id": 41948,
        "meta_element_set_no": 999,
        "meta_rev_at_epoch": 49097,
        "meta_bstar": 0.00020564083,
        "meta_mean_motion_dot": 4.258e-05,
        "meta_mean_motion_ddot": 0,
        "tle_line1": "1 41948U 17008A   25357.96163586  .00004258  00000+0  20564-3 0  9996",
        "tle_line2": "2 41948  97.4375  55.2874 0005283 120.6667 239.5089 15.19171771490975"
      },
      "geometry": {
        "type": "Point",
        "coordinates": [
          -95.72644028572303,
          74.78600467003592
        ]
      }
    },
    {
      "type": "Feature",
      "properties": {
        "norad_id": 42063,
        "name": "SENTINEL-2B",
        "group": "resource",
        "lat": 7.67816213408959,
        "lon": 69.36315344989869,
        "alt_km": 790.7895056010684,
        "timestamp": "2025-12-24T05:51:19.263146+00:00",
        "meta_object_name": "SENTINEL-2B",
        "meta_object_id": "2017-013A",
        "meta_epoch": "2025-12-23T23:06:21.099744",
        "meta_mean_motion": 14.30814917,
        "meta_eccentricity": 0.00011941,
        "meta_inclination": 98.5703,
        "meta_ra_of_asc_node": 70.2509,
        "meta_arg_of_pericenter": 92.1628,
        "meta_mean_anomaly": 267.9691,
        "meta_ephemeris_type": 0,
        "meta_classification_type": "U",
        "meta_norad_cat_id": 42063,
        "meta_element_set_no": 999,
        "meta_rev_at_epoch": 45958,
        "meta_bstar": 7.6413539e-05,
        "meta_mean_motion_dot": 1.57e-06,
        "meta_mean_motion_ddot": 0,
        "tle_line1": "1 42063U 17013A   25357.96274421  .00000157  00000+0  76414-4 0  9992",
        "tle_line2": "2 42063  98.5703  70.2509 0001194  92.1628 267.9691 14.30814917459584"
      },
      "geometry": {
        "type": "Point",
        "coordinates": [
          69.36315344989869,
          7.67816213408959
        ]
      }
    },
    {
      "type": "Feature",
      "properties": {
        "norad_id": 42767,
        "name": "CARTOSAT-2E",
        "group": "resource",
        "lat": 12.690500657780975,
        "lon": 53.99102795962214,
        "alt_km": 511.12696295041223,
        "timestamp": "2025-12-24T05:51:19.263156+00:00",
        "meta_object_name": "CARTOSAT-2E",
        "meta_object_id": "2017-036C",
        "meta_epoch": "2025-12-23T09:15:01.065600",
        "meta_mean_motion": 15.1929816,
        "meta_eccentricity": 0.00027834,
        "meta_inclination": 97.4537,
        "meta_ra_of_asc_node": 54.8332,
        "meta_arg_of_pericenter": 189.294,
        "meta_mean_anomaly": 170.8244,
        "meta_ephemeris_type": 0,
        "meta_classification_type": "U",
        "meta_norad_cat_id": 42767,
        "meta_element_set_no": 999,
        "meta_rev_at_epoch": 47145,
        "meta_bstar": 0.00026726953,
        "meta_mean_motion_dot": 5.574e-05,
        "meta_mean_motion_ddot": 0,
        "tle_line1": "1 42767U 17036C   25357.38542900  .00005574  00000+0  26727-3 0  9993",
        "tle_line2": "2 42767  97.4537  54.8332 0002783 189.2940 170.8244 15.19298160471450"
      },
      "geometry": {
        "type": "Point",
        "coordinates": [
          53.99102795962214,
          12.690500657780975
        ]
      }
    },
    {
      "type": "Feature",
      "properties": {
        "norad_id": 42920,
        "name": "FORMOSAT-5",
        "group": "resource",
        "lat": 61.004003421299046,
        "lon": -92.5041522652851,
        "alt_km": 722.8773760221311,
        "timestamp": "2025-12-24T05:51:19.263166+00:00",
        "meta_object_name": "FORMOSAT-5",
        "meta_object_id": "2017-049A",
        "meta_epoch": "2025-12-23T22:41:31.759008",
        "meta_mean_motion": 14.50766754,
        "meta_eccentricity": 0.00098265,
        "meta_inclination": 98.2439,
        "meta_ra_of_asc_node": 72.0389,
        "meta_arg_of_pericenter": 263.1753,
        "meta_mean_anomaly": 96.8324,
        "meta_ephemeris_type": 0,
        "meta_classification_type": "U",
        "meta_norad_cat_id": 42920,
        "meta_element_set_no": 999,
        "meta_rev_at_epoch": 44126,
        "meta_bstar": 6.8332778e-05,
        "meta_mean_motion_dot": 2.25e-06,
        "meta_mean_motion_ddot": 0,
        "tle_line1": "1 42920U 17049A   25357.94550647  .00000225  00000+0  68333-4 0  9995",
        "tle_line2": "2 42920  98.2439  72.0389 0009826 263.1753  96.8324 14.50766754441269"
      },
      "geometry": {
        "type": "Point",
        "coordinates": [
          -92.5041522652851,
          61.004003421299046
        ]
      }
    },
    {
      "type": "Feature",
      "properties": {
        "norad_id": 42969,
        "name": "SENTINEL-5P",
        "group": "resource",
        "lat": -60.39775207062278,
        "lon": -47.48786553496133,
        "alt_km": 834.74318217993,
        "timestamp": "2025-12-24T05:51:19.263177+00:00",
        "meta_object_name": "SENTINEL-5P",
        "meta_object_id": "2017-064A",
        "meta_epoch": "2025-12-23T19:59:42.776736",
        "meta_mean_motion": 14.19520112,
        "meta_eccentricity": 0.00010333,
        "meta_inclination": 98.7801,
        "meta_ra_of_asc_node": 296.3196,
        "meta_arg_of_pericenter": 91.263,
        "meta_mean_anomaly": 268.8664,
        "meta_ephemeris_type": 0,
        "meta_classification_type": "U",
        "meta_norad_cat_id": 42969,
        "meta_element_set_no": 999,
        "meta_rev_at_epoch": 42468,
        "meta_bstar": 5.3996767e-05,
        "meta_mean_motion_dot": 7e-07,
        "meta_mean_motion_ddot": 0,
        "tle_line1": "1 42969U 17064A   25357.83313399  .00000070  00000+0  53997-4 0  9992",
        "tle_line2": "2 42969  98.7801 296.3196 0001033  91.2630 268.8664 14.19520112424689"
      },
      "geometry": {
        "type": "Point",
        "coordinates": [
          -47.48786553496133,
          -60.39775207062278
        ]
      }
    },
    {
      "type": "Feature",
      "properties": {
        "norad_id": 42987,
        "name": "SKYSAT-C11",
        "group": "resource",
        "lat": -48.337707652095446,
        "lon": 144.44109826022085,
        "alt_km": 430.32378968466674,
        "timestamp": "2025-12-24T05:51:19.263187+00:00",
        "meta_object_name": "SKYSAT-C11",
        "meta_object_id": "2017-068A",
        "meta_epoch": "2025-12-23T22:18:31.700448",
        "meta_mean_motion": 15.47915438,
        "meta_eccentricity": 0.00011353,
        "meta_inclination": 97.4153,
        "meta_ra_of_asc_node": 135.7018,
        "meta_arg_of_pericenter": 96.7135,
        "meta_mean_anomaly": 263.4245,
        "meta_ephemeris_type": 0,
        "meta_classification_type": "U",
        "meta_norad_cat_id": 42987,
        "meta_element_set_no": 999,
        "meta_rev_at_epoch": 45604,
        "meta_bstar": 0.00046863844,
        "meta_mean_motion_dot": 0.00024367,
        "meta_mean_motion_ddot": 0,
        "tle_line1": "1 42987U 17068A   25357.92953357  .00024367  00000+0  46864-3 0  9999",
        "tle_line2": "2 42987  97.4153 135.7018 0001135  96.7135 263.4245 15.47915438456049"
      },
      "geometry": {
        "type": "Point",
        "coordinates": [
          144.44109826022085,
          -48.337707652095446
        ]
      }
    },
    {
      "type": "Feature",
      "properties": {
        "norad_id": 42988,
        "name": "SKYSAT-C10",
        "group": "resource",
        "lat": 68.06244723183286,
        "lon": -31.972754458689572,
        "alt_km": 459.53390299760395,
        "timestamp": "2025-12-24T05:51:19.263197+00:00",
        "meta_object_name": "SKYSAT-C10",
        "meta_object_id": "2017-068B",
        "meta_epoch": "2025-12-23T21:32:17.126880",
        "meta_mean_motion": 15.32289982,
        "meta_eccentricity": 0.00053127,
        "meta_inclination": 97.4271,
        "meta_ra_of_asc_node": 128.7812,
        "meta_arg_of_pericenter": 72.934,
        "meta_mean_anomaly": 287.2483,
        "meta_ephemeris_type": 0,
        "meta_classification_type": "U",
        "meta_norad_cat_id": 42988,
        "meta_element_set_no": 999,
        "meta_rev_at_epoch": 45550,
        "meta_bstar": 0.00034377349,
        "meta_mean_motion_dot": 0.00010647,
        "meta_mean_motion_ddot": 0,
        "tle_line1": "1 42988U 17068B   25357.89742045  .00010647  00000+0  34377-3 0  9998",
        "tle_line2": "2 42988  97.4271 128.7812 0005312  72.9340 287.2483 15.32289982455500"
      },
      "geometry": {
        "type": "Point",
        "coordinates": [
          -31.972754458689572,
          68.06244723183286
        ]
      }
    }
  ]
}